[
  {
    "name": "CARTOSAT 2F",
    "tle1": "1 43111U 18004A   26159.31644102  .00004754  00000-0  22843-3 0  9999",
    "tle2": "2 43111  97.4785 219.0382 0000065 336.3551  23.7680 15.19307443465989",
    "norad_id": "43111"
  },
  {
    "name": "CORVUS BC1",
    "tle1": "1 42847U 17042Y   26159.02298042  .00003322  00000-0  22909-3 0  9994",
    "tle2": "2 42847  97.4086 321.5388 0013330 117.0197 243.2393 15.06406941485714",
    "norad_id": "42847"
  },
  {
    "name": "NORSAT 2",
    "tle1": "1 42828U 17042D   26159.28266573  .00009187  00000-0  40751-3 0  9995",
    "tle2": "2 42828  97.4042 332.8663 0010869  85.1495 275.0982 15.21753838486384",
    "norad_id": "42828"
  },
  {
    "name": "CARTOSAT 2E",
    "tle1": "1 42767U 17036C   26159.21875032  .00004543  00000-0  21872-3 0  9993",
    "tle2": "2 42767  97.4278 219.1687 0003181 359.5453   0.5778 15.19254765496782",
    "norad_id": "42767"
  },
  {
    "name": "AO-91",
    "tle1": "1 43017U 17073E   26158.88082012  .00009506  00000-0  41497-3 0  9992",
    "tle2": "2 43017  97.4721  26.2863 0150955   1.5297 358.6365 15.12564477463981",
    "norad_id": "43017"
  },
  {
    "name": "CZ-4C R/B",
    "tle1": "1 43012U 17072C   26159.19263610  .00000562  00000-0  11933-3 0  9991",
    "tle2": "2 43012  98.5787 266.8984 0122513 179.0608 181.0843 14.58773225455322",
    "norad_id": "43012"
  },
  {
    "name": "TECHNOSAT",
    "tle1": "1 42829U 17042E   26159.00712351  .00003273  00000-0  23457-3 0  9990",
    "tle2": "2 42829  97.4268 317.0161 0018875 123.1352 237.1690 15.04900003485320",
    "norad_id": "42829"
  },
  {
    "name": "DSAT",
    "tle1": "1 42794U 17036AF  26159.19267756  .00004732  00000-0  22370-3 0  9992",
    "tle2": "2 42794  97.5553 138.1331 0081511 191.5983 168.3375 15.16943607489493",
    "norad_id": "42794"
  },
  {
    "name": "FLYING LAPTOP",
    "tle1": "1 42831U 17042G   26159.31988279  .00003569  00000-0  28242-3 0  9996",
    "tle2": "2 42831  97.4657 315.1968 0019119 150.6529 209.5774 15.01087719485123",
    "norad_id": "42831"
  },
  {
    "name": "CARTOSAT 2D",
    "tle1": "1 41948U 17008A   26159.33288260  .00004322  00000-0  20815-3 0  9997",
    "tle2": "2 41948  97.4108 218.8036 0003516 273.3166  86.7667 15.19267473516230",
    "norad_id": "41948"
  },
  {
    "name": "CORVUS BC2",
    "tle1": "1 42846U 17042X   26159.02733466  .00003387  00000-0  23448-3 0  9997",
    "tle2": "2 42846  97.4062 320.7350 0014202 138.2076 222.0239 15.06239540485686",
    "norad_id": "42846"
  },
  {
    "name": "MAKERSAT 0",
    "tle1": "1 43016U 17073D   26158.64340438  .00021201  00000-0  58054-3 0  9997",
    "tle2": "2 43016  97.4640  41.0894 0106135 307.5668  51.5969 15.31756991465000",
    "norad_id": "43016"
  },
  {
    "name": "JILIN-1-03",
    "tle1": "1 41914U 17002B   26159.26222938  .00011677  00000-0  28162-3 0  9990",
    "tle2": "2 41914  97.1952 166.4741 0005607 182.8211 177.3006 15.41357727520489",
    "norad_id": "41914"
  },
  {
    "name": "JILIN-01-04",
    "tle1": "1 43022U 17074A   26159.26266794  .00011466  00000-0  26901-3 0  9994",
    "tle2": "2 43022  97.4846 268.6396 0003356 209.7844 150.3212 15.42217266472892",
    "norad_id": "43022"
  },
  {
    "name": "JILIN-01-05",
    "tle1": "1 43023U 17074B   26159.24863427  .00007644  00000-0  23677-3 0  9999",
    "tle2": "2 43023  97.4852 265.2836 0003775 253.4979 106.5849 15.33735778472636",
    "norad_id": "43023"
  },
  {
    "name": "JILIN-01-06",
    "tle1": "1 43024U 17074C   26159.28451630  .00005052  00000-0  15801-3 0  9994",
    "tle2": "2 43024  97.4779 262.3406 0005298 270.4615  89.6020 15.33597550472472",
    "norad_id": "43024"
  },
  {
    "name": "FENGYUN 3D",
    "tle1": "1 43010U 17072A   26159.26753104  .00000308  00000-0  16741-3 0  9999",
    "tle2": "2 43010  99.0128 133.5292 0002647  76.1365 284.0105 14.19738397443723",
    "norad_id": "43010"
  },
  {
    "name": "NOAA 20",
    "tle1": "1 43013U 17073A   26159.19053229  .00000061  00000-0  49943-4 0  9993",
    "tle2": "2 43013  98.7770  98.7333 0000473  40.7017 319.4195 14.19510137443192",
    "norad_id": "43013"
  },
  {
    "name": "LEMUR 2 FURIAUS",
    "tle1": "1 42840U 17042R   26158.46729570  .00018073  00000-0  62480-3 0  9996",
    "tle2": "2 42840  97.3773 337.1173 0008535  98.8266 261.3941 15.29931512486722",
    "norad_id": "42840"
  },
  {
    "name": "WNISAT 1R",
    "tle1": "1 42835U 17042L   26159.16334094  .00002483  00000-0  19514-3 0  9999",
    "tle2": "2 42835  97.4833 315.6090 0010059 178.7752 181.3500 15.01723469485153",
    "norad_id": "42835"
  },
  {
    "name": "MOHAMMED VI-A",
    "tle1": "1 43005U 17070A   26159.26884308  .00000458  00000-0  72053-4 0  9997",
    "tle2": "2 43005  97.9553 231.7229 0001545  71.8367 288.3011 14.77057739462662",
    "norad_id": "43005"
  },
  {
    "name": "IRIDIUM 116",
    "tle1": "1 43072U 17083C   26159.21485107  .00000225  00000-0  73200-4 0  9991",
    "tle2": "2 43072  86.3958 325.7538 0001859  94.1501 265.9907 14.34217592442885",
    "norad_id": "43072"
  },
  {
    "name": "IRIDIUM 113",
    "tle1": "1 42803U 17039A   26159.17045375  .00000142  00000-0  43635-4 0  9994",
    "tle2": "2 42803  86.3964 325.9490 0002311  90.0902 270.0558 14.34217849469890",
    "norad_id": "42803"
  },
  {
    "name": "IRIDIUM 130",
    "tle1": "1 43073U 17083D   26159.18313768  .00000244  00000-0  79904-4 0  9999",
    "tle2": "2 43073  86.3967 326.0415 0001951  88.1759 271.9660 14.34218276442822",
    "norad_id": "43073"
  },
  {
    "name": "SUPERVIEW-1 03",
    "tle1": "1 43099U 18002A   26159.25867528  .00018281  00000-0  45814-3 0  9997",
    "tle2": "2 43099  97.3128 244.1123 0046641 211.6694 148.1744 15.38961689466993",
    "norad_id": "43099"
  },
  {
    "name": "TANSAT",
    "tle1": "1 41898U 16081A   26159.27030815  .00000487  00000-0  11200-3 0  9991",
    "tle2": "2 41898  98.5369 159.2648 0020219 340.7109  19.3323 14.59944136503325",
    "norad_id": "41898"
  },
  {
    "name": "LEMUR 2 GREENBERG",
    "tle1": "1 42837U 17042N   26159.06861268  .00018086  00000-0  60391-3 0  9993",
    "tle2": "2 42837  97.3822 339.7378 0009405  45.2806 314.9199 15.31050243486996",
    "norad_id": "42837"
  },
  {
    "name": "LKW-3",
    "tle1": "1 43146U 18006A   26159.25433400  .00009548  00000-0  28300-3 0  9999",
    "tle2": "2 43146  97.6608 319.4816 0002725   2.5849 357.5407 15.35070678467349",
    "norad_id": "43146"
  },
  {
    "name": "LKW-2",
    "tle1": "1 43080U 17084A   26159.17775385  .00007302  00000-0  28470-3 0  9997",
    "tle2": "2 43080  97.1196 199.3951 0000200 289.3077  70.8141 15.26223636470317",
    "norad_id": "43080"
  },
  {
    "name": "VRSS-2",
    "tle1": "1 42954U 17060A   26159.26985985  .00001297  00000-0  17271-3 0  9993",
    "tle2": "2 42954  97.6515 197.3985 0018227 125.6346 234.6568 14.81180983467136",
    "norad_id": "42954"
  }
]