OBJECT_NAME,OBJECT_ID,EPOCH,MEAN_MOTION,ECCENTRICITY,INCLINATION,RA_OF_ASC_NODE,ARG_OF_PERICENTER,MEAN_ANOMALY,EPHEMERIS_TYPE,CLASSIFICATION_TYPE,NORAD_CAT_ID,ELEMENT_SET_NO,REV_AT_EPOCH,BSTAR,MEAN_MOTION_DOT,MEAN_MOTION_DDOT
TANSAT,2016-081A,2026-06-08T06:29:14.624160,14.59944136,.00202191,98.5369,159.2648,340.7109,19.3323,0,U,41898,999,50332,.11200081E-3,.487E-5,0
JILIN-1 03,2017-002B,2026-06-08T06:17:36.618432,15.41357727,.00056065,97.1952,166.4741,182.8211,177.3006,0,U,41914,999,52048,.28162305E-3,.11677E-3,0
CARTOSAT-2D,2017-008A,2026-06-08T07:59:21.056640,15.19267473,.0003516,97.4108,218.8036,273.3166,86.7667,0,U,41948,999,51623,.20814632E-3,.4322E-4,0
CARTOSAT-2E,2017-036C,2026-06-08T05:15:00.027648,15.19254765,.00031813,97.4278,219.1687,359.5453,0.5778,0,U,42767,999,49678,.21872484E-3,.4543E-4,0
D-SAT,2017-036AF,2026-06-08T04:37:27.341184,15.16943607,.00815109,97.5553,138.1331,191.5983,168.3375,0,U,42794,999,48949,.22370297E-3,.4732E-4,0
IRIDIUM 113,2017-039A,2026-06-08T04:05:27.204000,14.34217849,.00023106,86.3964,325.9490,90.0902,270.0558,0,U,42803,999,46989,.43634686E-4,.142E-5,0
NORSAT 2,2017-042D,2026-06-08T06:47:02.319072,15.21753838,.00108694,97.4042,332.8663,85.1495,275.0982,0,U,42828,999,48638,.40750758E-3,.9187E-4,0
TECHNOSAT,2017-042E,2026-06-08T00:10:15.471264,15.04900003,.00188753,97.4268,317.0161,123.1352,237.1690,0,U,42829,999,48532,.23457182E-3,.3273E-4,0
FLYING LAPTOP,2017-042G,2026-06-08T07:40:37.873056,15.01087719,.00191187,97.4657,315.1968,150.6529,209.5774,0,U,42831,999,48512,.28241932E-3,.3569E-4,0
WNISAT 1R,2017-042L,2026-06-08T03:55:12.657216,15.01723469,.00100588,97.4833,315.6090,178.7752,181.3500,0,U,42835,999,48515,.19513855E-3,.2483E-4,0
LEMUR-2-GREENBERG,2017-042N,2026-06-08T01:38:48.135552,15.31050243,.00094049,97.3822,339.7378,45.2806,314.9199,0,U,42837,999,48699,.60391278E-3,.18086E-3,0
LEMUR-2-FURIAUS,2017-042R,2026-06-07T11:12:54.348480,15.29931512,.0008535,97.3773,337.1173,98.8266,261.3941,0,U,42840,999,48672,.62479608E-3,.18073E-3,0
CORVUS BC2,2017-042X,2026-06-08T00:39:21.714624,15.06239540,.00142023,97.4062,320.7350,138.2076,222.0239,0,U,42846,999,48568,.23448438E-3,.3387E-4,0
CORVUS BC1,2017-042Y,2026-06-08T00:33:05.508288,15.06406941,.00133302,97.4086,321.5388,117.0197,243.2393,0,U,42847,999,48571,.22908602E-3,.3322E-4,0
VRSS-2,2017-060A,2026-06-08T06:28:35.891040,14.81180983,.00182274,97.6515,197.3985,125.6346,234.6568,0,U,42954,999,46713,.17271416E-3,.1297E-4,0
MOHAMMED VI-A,2017-070A,2026-06-08T06:27:08.042112,14.77057739,.00015448,97.9553,231.7229,71.8367,288.3011,0,U,43005,999,46266,.7205286E-4,.458E-5,0
FENGYUN 3D,2017-072A,2026-06-08T06:25:14.681856,14.19738397,.00026468,99.0128,133.5292,76.1365,284.0105,0,U,43010,999,44372,.1674119E-3,.308E-5,0
CZ-4C R/B,2017-072C,2026-06-08T04:37:23.759040,14.58773225,.01225131,98.5787,266.8984,179.0608,181.0843,0,U,43012,999,45532,.11933464E-3,.562E-5,0
NOAA 20 (JPSS-1),2017-073A,2026-06-08T04:34:21.989856,14.19510137,.00004726,98.7770,98.7333,40.7017,319.4195,0,U,43013,999,44319,.49942862E-4,.61E-6,0
MAKERSAT 0,2017-073D,2026-06-07T15:26:30.138432,15.31756991,.01061352,97.4640,41.0894,307.5668,51.5969,0,U,43016,999,46500,.58053729E-3,.21201E-3,0
RADFXSAT (FOX-1B),2017-073E,2026-06-07T21:08:22.858368,15.12564477,.01509554,97.4721,26.2863,1.5297,358.6365,0,U,43017,999,46398,.41497429E-3,.9506E-4,0
JILIN-1 04,2017-074A,2026-06-08T06:18:14.510016,15.42217266,.00033557,97.4846,268.6396,209.7844,150.3212,0,U,43022,999,47289,.26901282E-3,.11466E-3,0
JILIN-1 05,2017-074B,2026-06-08T05:58:02.000928,15.33735778,.00037753,97.4852,265.2836,253.4979,106.5849,0,U,43023,999,47263,.23676727E-3,.7644E-4,0
JILIN-1 06,2017-074C,2026-06-08T06:49:42.208320,15.33597550,.00052976,97.4779,262.3406,270.4615,89.6020,0,U,43024,999,47247,.15801274E-3,.5052E-4,0
IRIDIUM 116,2017-083C,2026-06-08T05:09:23.132448,14.34217592,.00018594,86.3958,325.7538,94.1501,265.9907,0,U,43072,999,44288,.73199737E-4,.225E-5,0
IRIDIUM 130,2017-083D,2026-06-08T04:23:43.095552,14.34218276,.00019507,86.3967,326.0415,88.1759,271.9660,0,U,43073,999,44282,.79903533E-4,.244E-5,0
LKW-2,2017-084A,2026-06-08T04:15:57.932640,15.26223636,.00001999,97.1196,199.3951,289.3077,70.8141,0,U,43080,999,47031,.28469709E-3,.7302E-4,0
SUPERVIEW-1 03,2018-002A,2026-06-08T06:12:29.544192,15.38961689,.00466407,97.3128,244.1123,211.6694,148.1744,0,U,43099,999,46699,.45813638E-3,.18281E-3,0
CARTOSAT-2F,2018-004A,2026-06-08T07:35:40.504128,15.19307443,.00000653,97.4785,219.0382,336.3551,23.7680,0,U,43111,999,46598,.22843354E-3,.4754E-4,0
LKW-3,2018-006A,2026-06-08T06:06:14.457600,15.35070678,.00027252,97.6608,319.4816,2.5849,357.5407,0,U,43146,999,46734,.28300071E-3,.9548E-4,0
